SENTINEL-5P             
1 42969U 17064A   26196.81915036  .00000006  00000+0  24074-4 0  9991
2 42969  98.7929 138.7478 0001136  93.1650 266.9656 14.19523350453622
